IRIDIUM 38              
1 25043U 97069E   25116.88804541  .00001020  00000+0  33063-3 0  9998
2 25043  86.3939 254.7316 0000339 140.4574 219.6649 14.38064547438589
IRIDIUM 42              
1 25077U 97077A   25116.90097728  .00000928  00000+0  31085-3 0  9996
2 25077  86.3932 260.8366 0001406  88.0934 272.0424 14.36303569433830
IRIDIUM 44              
1 25078U 97077B   25116.85486137  .00000931  00000+0  28835-3 0  9990
2 25078  86.3960 242.9059 0002528 141.1447 218.9934 14.40193736436340
IRIDIUM 45              
1 25104U 97082A   25116.88383102  .00027520  00000+0  10313-2 0  9991
2 25104  86.3576  72.7622 0122660 162.0853 198.4774 15.20248903444249
IRIDIUM 24              
1 25105U 97082B   25116.96321151  .00001078  00000+0  32235-3 0  9995
2 25105  86.3862 102.0319 0009242 242.5303 117.4958 14.42038907435836
IRIDIUM 51              
1 25262U 98018A   25116.89001614  .00054528  00000+0  13342-2 0  9995
2 25262  86.3824  81.1575 0098374  87.3392 273.9115 15.35609589439140
IRIDIUM 57              
1 25273U 98019B   25116.67255305  .00000597  00000+0  19960-3 0  9992
2 25273  86.3998 166.8377 0002203  93.5626 266.5822 14.35855043417393
